{
  "type": "FeatureCollection",
  "features": [
    {
      "type": "Feature",
      "properties": {
        "norad_id": 66404,
        "name": "STARLINK-35691",
        "group": "last-30-days",
        "lat": 9.94243949435423,
        "lon": -70.25602481196333,
        "alt_km": 441.9026888264916,
        "timestamp": "2025-12-08T21:31:03.445876+00:00",
        "meta_object_name": "STARLINK-35691",
        "meta_object_id": "2025-257AA",
        "meta_epoch": "2025-12-08T14:00:01.999872",
        "meta_mean_motion": 15.42546333,
        "meta_eccentricity": 6.351e-05,
        "meta_inclination": 53.1595,
        "meta_ra_of_asc_node": 283.6737,
        "meta_arg_of_pericenter": 134.4937,
        "meta_mean_anomaly": 298.4549,
        "meta_ephemeris_type": 0,
        "meta_classification_type": "U",
        "meta_norad_cat_id": 66404,
        "meta_element_set_no": 999,
        "meta_rev_at_epoch": 582,
        "meta_bstar": -0.044258278,
        "meta_mean_motion_dot": -0.01763676,
        "meta_mean_motion_ddot": 0,
        "tle_line1": "1 66404U 25257AA  25342.58335648 -.01763676  00000+0 -44258-1 0  9990",
        "tle_line2": "2 66404  53.1595 283.6737 0000635 134.4937 298.4549 15.42546333  5823"
      },
      "geometry": {
        "type": "Point",
        "coordinates": [
          -70.25602481196333,
          9.94243949435423
        ]
      }
    },
    {
      "type": "Feature",
      "properties": {
        "norad_id": 66405,
        "name": "STARLINK-35683",
        "group": "last-30-days",
        "lat": 23.918490368601276,
        "lon": -58.421814598851746,
        "alt_km": 430.37476149493614,
        "timestamp": "2025-12-08T21:31:03.445887+00:00",
        "meta_object_name": "STARLINK-35683",
        "meta_object_id": "2025-257AB",
        "meta_epoch": "2025-12-08T14:00:01.999872",
        "meta_mean_motion": 15.45727037,
        "meta_eccentricity": 0.00010752,
        "meta_inclination": 53.1596,
        "meta_ra_of_asc_node": 283.6445,
        "meta_arg_of_pericenter": 81.2143,
        "meta_mean_anomaly": 6.2353,
        "meta_ephemeris_type": 0,
        "meta_classification_type": "U",
        "meta_norad_cat_id": 66405,
        "meta_element_set_no": 999,
        "meta_rev_at_epoch": 567,
        "meta_bstar": -0.046796159,
        "meta_mean_motion_dot": -0.02044798,
        "meta_mean_motion_ddot": 0,
        "tle_line1": "1 66405U 25257AB  25342.58335648 -.02044798  00000+0 -46796-1 0  9998",
        "tle_line2": "2 66405  53.1596 283.6445 0001075  81.2143   6.2353 15.45727037  5674"
      },
      "geometry": {
        "type": "Point",
        "coordinates": [
          -58.421814598851746,
          23.918490368601276
        ]
      }
    },
    {
      "type": "Feature",
      "properties": {
        "norad_id": 66406,
        "name": "STARLINK-34840",
        "group": "last-30-days",
        "lat": 35.31719927228091,
        "lon": -45.789323781257,
        "alt_km": 413.8493418063099,
        "timestamp": "2025-12-08T21:31:03.445898+00:00",
        "meta_object_name": "STARLINK-34840",
        "meta_object_id": "2025-257AC",
        "meta_epoch": "2025-12-08T13:34:41.658816",
        "meta_mean_motion": 15.49353814,
        "meta_eccentricity": 4.215e-05,
        "meta_inclination": 53.1588,
        "meta_ra_of_asc_node": 283.707,
        "meta_arg_of_pericenter": 123.5038,
        "meta_mean_anomaly": 236.6011,
        "meta_ephemeris_type": 0,
        "meta_classification_type": "U",
        "meta_norad_cat_id": 66406,
        "meta_element_set_no": 999,
        "meta_rev_at_epoch": 567,
        "meta_bstar": 0.0019441938,
        "meta_mean_motion_dot": 0.00109379,
        "meta_mean_motion_ddot": 0,
        "tle_line1": "1 66406U 25257AC  25342.56575994  .00109379  00000+0  19442-2 0  9999",
        "tle_line2": "2 66406  53.1588 283.7070 0000421 123.5038 236.6011 15.49353814  5670"
      },
      "geometry": {
        "type": "Point",
        "coordinates": [
          -45.789323781257,
          35.31719927228091
        ]
      }
    },
    {
      "type": "Feature",
      "properties": {
        "norad_id": 66407,
        "name": "STARLINK-35686",
        "group": "last-30-days",
        "lat": 31.56939975623446,
        "lon": -50.43324915769221,
        "alt_km": 419.8978683920013,
        "timestamp": "2025-12-08T21:31:03.445909+00:00",
        "meta_object_name": "STARLINK-35686",
        "meta_object_id": "2025-257AD",
        "meta_epoch": "2025-12-08T14:00:01.999872",
        "meta_mean_motion": 15.4884343,
        "meta_eccentricity": 0.0001076,
        "meta_inclination": 53.1593,
        "meta_ra_of_asc_node": 283.6304,
        "meta_arg_of_pericenter": 68.4877,
        "meta_mean_anomaly": 25.8702,
        "meta_ephemeris_type": 0,
        "meta_classification_type": "U",
        "meta_norad_cat_id": 66407,
        "meta_element_set_no": 999,
        "meta_rev_at_epoch": 582,
        "meta_bstar": -0.043002352,
        "meta_mean_motion_dot": -0.02090036,
        "meta_mean_motion_ddot": 0,
        "tle_line1": "1 66407U 25257AD  25342.58335648 -.02090036  00000+0 -43002-1 0  9993",
        "tle_line2": "2 66407  53.1593 283.6304 0001076  68.4877  25.8702 15.48843430  5820"
      },
      "geometry": {
        "type": "Point",
        "coordinates": [
          -50.43324915769221,
          31.56939975623446
        ]
      }
    },
    {
      "type": "Feature",
      "properties": {
        "norad_id": 66408,
        "name": "STARLINK-35679",
        "group": "last-30-days",
        "lat": 29.123119028616614,
        "lon": -53.1691496916298,
        "alt_km": 421.4193874512084,
        "timestamp": "2025-12-08T21:31:03.445928+00:00",
        "meta_object_name": "STARLINK-35679",
        "meta_object_id": "2025-257AE",
        "meta_epoch": "2025-12-08T08:57:08.502048",
        "meta_mean_motion": 15.47234722,
        "meta_eccentricity": 0.00086151,
        "meta_inclination": 53.1603,
        "meta_ra_of_asc_node": 284.638,
        "meta_arg_of_pericenter": 114.493,
        "meta_mean_anomaly": 245.6977,
        "meta_ephemeris_type": 0,
        "meta_classification_type": "U",
        "meta_norad_cat_id": 66408,
        "meta_element_set_no": 999,
        "meta_rev_at_epoch": 570,
        "meta_bstar": -0.008237837,
        "meta_mean_motion_dot": -0.0040599,
        "meta_mean_motion_ddot": 0,
        "tle_line1": "1 66408U 25257AE  25342.37301507 -.00405990  00000+0 -82378-2 0  9995",
        "tle_line2": "2 66408  53.1603 284.6380 0008615 114.4930 245.6977 15.47234722  5706"
      },
      "geometry": {
        "type": "Point",
        "coordinates": [
          -53.1691496916298,
          29.123119028616614
        ]
      }
    },
    {
      "type": "Feature",
      "properties": {
        "norad_id": 66409,
        "name": "CHUTIAN-2 A",
        "group": "last-30-days",
        "lat": -4.716021104212178,
        "lon": -132.9625635677954,
        "alt_km": 719.8682759862113,
        "timestamp": "2025-12-08T21:31:03.445938+00:00",
        "meta_object_name": "CHUTIAN-2 A",
        "meta_object_id": "2025-256A",
        "meta_epoch": "2025-12-08T14:02:37.082688",
        "meta_mean_motion": 14.49934466,
        "meta_eccentricity": 0.00134928,
        "meta_inclination": 98.2776,
        "meta_ra_of_asc_node": 47.4197,
        "meta_arg_of_pericenter": 190.2906,
        "meta_mean_anomaly": 169.8014,
        "meta_ephemeris_type": 0,
        "meta_classification_type": "U",
        "meta_norad_cat_id": 66409,
        "meta_element_set_no": 999,
        "meta_rev_at_epoch": 427,
        "meta_bstar": 0.00036179947,
        "meta_mean_motion_dot": 1.357e-05,
        "meta_mean_motion_ddot": 0,
        "tle_line1": "1 66409U 25256A   25342.58515142  .00001357  00000+0  36180-3 0  9998",
        "tle_line2": "2 66409  98.2776  47.4197 0013492 190.2906 169.8014 14.49934466  4276"
      },
      "geometry": {
        "type": "Point",
        "coordinates": [
          -132.9625635677954,
          -4.716021104212178
        ]
      }
    },
    {
      "type": "Feature",
      "properties": {
        "norad_id": 66410,
        "name": "CHUTIAN-2 B",
        "group": "last-30-days",
        "lat": -81.06758939002616,
        "lon": 159.87781282568412,
        "alt_km": 727.3140329075795,
        "timestamp": "2025-12-08T21:31:03.445949+00:00",
        "meta_object_name": "CHUTIAN-2 B",
        "meta_object_id": "2025-256B",
        "meta_epoch": "2025-12-08T12:01:02.397216",
        "meta_mean_motion": 14.50918128,
        "meta_eccentricity": 0.00136961,
        "meta_inclination": 98.2797,
        "meta_ra_of_asc_node": 47.3789,
        "meta_arg_of_pericenter": 193.7504,
        "meta_mean_anomaly": 166.332,
        "meta_ephemeris_type": 0,
        "meta_classification_type": "U",
        "meta_norad_cat_id": 66410,
        "meta_element_set_no": 999,
        "meta_rev_at_epoch": 426,
        "meta_bstar": 0.00034704134,
        "meta_mean_motion_dot": 1.327e-05,
        "meta_mean_motion_ddot": 0,
        "tle_line1": "1 66410U 25256B   25342.50072219  .00001327  00000+0  34704-3 0  9992",
        "tle_line2": "2 66410  98.2797  47.3789 0013696 193.7504 166.3320 14.50918128  4265"
      },
      "geometry": {
        "type": "Point",
        "coordinates": [
          159.87781282568412,
          -81.06758939002616
        ]
      }
    }
  ]
}